CCSDS_OMM_VERS = 2.0
CREATION_DATE  = 
ORIGINATOR     = 

OBJECT_NAME    = FLOCK 4H-16
OBJECT_ID      = 2025-276BF
CENTER_NAME    = EARTH
REF_FRAME      = TEME
TIME_SYSTEM    = UTC
MEAN_ELEMENT_THEORY = SGP/SGP4

EPOCH          = 2025-12-20T00:00:02.000160
MEAN_MOTION    = 15.17176766
ECCENTRICITY   = .00028776
INCLINATION    = 97.4452
RA_OF_ASC_NODE = 65.6410
ARG_OF_PERICENTER = 265.1446
MEAN_ANOMALY   = 120.6373

EPHEMERIS_TYPE = 0
CLASSIFICATION_TYPE = U
NORAD_CAT_ID   = 66719
ELEMENT_SET_NO = 999
REV_AT_EPOCH   = 265
BSTAR          = .12346444E-2
MEAN_MOTION_DOT = .24517E-3
MEAN_MOTION_DDOT = 0

CCSDS_OMM_VERS = 2.0
CREATION_DATE  = 
ORIGINATOR     = 

OBJECT_NAME    = FLOCK 4H-17
OBJECT_ID      = 2025-276BG
CENTER_NAME    = EARTH
REF_FRAME      = TEME
TIME_SYSTEM    = UTC
MEAN_ELEMENT_THEORY = SGP/SGP4

EPOCH          = 2025-12-20T04:21:46.615392
MEAN_MOTION    = 15.18028916
ECCENTRICITY   = .00024739
INCLINATION    = 97.4453
RA_OF_ASC_NODE = 65.8481
ARG_OF_PERICENTER = 200.8658
MEAN_ANOMALY   = 159.2476

EPHEMERIS_TYPE = 0
CLASSIFICATION_TYPE = U
NORAD_CAT_ID   = 66720
ELEMENT_SET_NO = 999
REV_AT_EPOCH   = 325
BSTAR          = .29797788E-3
MEAN_MOTION_DOT = .5998E-4
MEAN_MOTION_DDOT = 0

CCSDS_OMM_VERS = 2.0
CREATION_DATE  = 
ORIGINATOR     = 

OBJECT_NAME    = FLOCK 4H-18
OBJECT_ID      = 2025-276BH
CENTER_NAME    = EARTH
REF_FRAME      = TEME
TIME_SYSTEM    = UTC
MEAN_ELEMENT_THEORY = SGP/SGP4

EPOCH          = 2025-12-20T10:59:32.807040
MEAN_MOTION    = 15.17113110
ECCENTRICITY   = .0002559
INCLINATION    = 97.4389
RA_OF_ASC_NODE = 66.0699
ARG_OF_PERICENTER = 297.2553
MEAN_ANOMALY   = 62.8419

EPHEMERIS_TYPE = 0
CLASSIFICATION_TYPE = U
NORAD_CAT_ID   = 66721
ELEMENT_SET_NO = 999
REV_AT_EPOCH   = 329
BSTAR          = .32289E-3
MEAN_MOTION_DOT = .6336E-4
MEAN_MOTION_DDOT = 0

CCSDS_OMM_VERS = 2.0
CREATION_DATE  = 
ORIGINATOR     = 

OBJECT_NAME    = FLOCK 4H-19
OBJECT_ID      = 2025-276BJ
CENTER_NAME    = EARTH
REF_FRAME      = TEME
TIME_SYSTEM    = UTC
MEAN_ELEMENT_THEORY = SGP/SGP4

EPOCH          = 2025-12-20T10:37:46.411392
MEAN_MOTION    = 15.18206931
ECCENTRICITY   = .0002144
INCLINATION    = 97.4397
RA_OF_ASC_NODE = 66.0918
ARG_OF_PERICENTER = 162.4254
MEAN_ANOMALY   = 197.7055

EPHEMERIS_TYPE = 0
CLASSIFICATION_TYPE = U
NORAD_CAT_ID   = 66722
ELEMENT_SET_NO = 999
REV_AT_EPOCH   = 258
BSTAR          = .51599E-3
MEAN_MOTION_DOT = .10494E-3
MEAN_MOTION_DDOT = 0

CCSDS_OMM_VERS = 2.0
CREATION_DATE  = 
ORIGINATOR     = 

OBJECT_NAME    = FLOCK 4H-20
OBJECT_ID      = 2025-276BK
CENTER_NAME    = EARTH
REF_FRAME      = TEME
TIME_SYSTEM    = UTC
MEAN_ELEMENT_THEORY = SGP/SGP4

EPOCH          = 2025-12-20T10:37:01.854912
MEAN_MOTION    = 15.18261675
ECCENTRICITY   = .0002666
INCLINATION    = 97.4434
RA_OF_ASC_NODE = 66.1048
ARG_OF_PERICENTER = 179.3997
MEAN_ANOMALY   = 180.7240

EPHEMERIS_TYPE = 0
CLASSIFICATION_TYPE = U
NORAD_CAT_ID   = 66723
ELEMENT_SET_NO = 999
REV_AT_EPOCH   = 254
BSTAR          = .34551E-3
MEAN_MOTION_DOT = .7013E-4
MEAN_MOTION_DDOT = 0

CCSDS_OMM_VERS = 2.0
CREATION_DATE  = 
ORIGINATOR     = 

OBJECT_NAME    = FLOCK 4H-21
OBJECT_ID      = 2025-276BL
CENTER_NAME    = EARTH
REF_FRAME      = TEME
TIME_SYSTEM    = UTC
MEAN_ELEMENT_THEORY = SGP/SGP4

EPOCH          = 2025-12-20T04:16:46.729632
MEAN_MOTION    = 15.18317621
ECCENTRICITY   = .00023322
INCLINATION    = 97.4400
RA_OF_ASC_NODE = 65.8332
ARG_OF_PERICENTER = 176.4825
MEAN_ANOMALY   = 183.6426

EPHEMERIS_TYPE = 0
CLASSIFICATION_TYPE = U
NORAD_CAT_ID   = 66724
ELEMENT_SET_NO = 999
REV_AT_EPOCH   = 250
BSTAR          = .22070857E-3
MEAN_MOTION_DOT = .4461E-4
MEAN_MOTION_DDOT = 0

CCSDS_OMM_VERS = 2.0
CREATION_DATE  = 
ORIGINATOR     = 

OBJECT_NAME    = FLOCK 4H-22
OBJECT_ID      = 2025-276BM
CENTER_NAME    = EARTH
REF_FRAME      = TEME
TIME_SYSTEM    = UTC
MEAN_ELEMENT_THEORY = SGP/SGP4

EPOCH          = 2025-12-20T10:53:32.843904
MEAN_MOTION    = 15.17651455
ECCENTRICITY   = .0001571
INCLINATION    = 97.4386
RA_OF_ASC_NODE = 66.0721
ARG_OF_PERICENTER = 275.3537
MEAN_ANOMALY   = 84.7517

EPHEMERIS_TYPE = 0
CLASSIFICATION_TYPE = U
NORAD_CAT_ID   = 66725
ELEMENT_SET_NO = 999
REV_AT_EPOCH   = 329
BSTAR          = .39728E-2
MEAN_MOTION_DOT = .80731E-3
MEAN_MOTION_DDOT = 0

CCSDS_OMM_VERS = 2.0
CREATION_DATE  = 
ORIGINATOR     = 

OBJECT_NAME    = FLOCK 4H-23
OBJECT_ID      = 2025-276BN
CENTER_NAME    = EARTH
REF_FRAME      = TEME
TIME_SYSTEM    = UTC
MEAN_ELEMENT_THEORY = SGP/SGP4

EPOCH          = 2025-12-20T03:03:19.686816
MEAN_MOTION    = 15.17195657
ECCENTRICITY   = .00033648
INCLINATION    = 97.4452
RA_OF_ASC_NODE = 65.7655
ARG_OF_PERICENTER = 256.6929
MEAN_ANOMALY   = 103.3930

EPHEMERIS_TYPE = 0
CLASSIFICATION_TYPE = U
NORAD_CAT_ID   = 66726
ELEMENT_SET_NO = 999
REV_AT_EPOCH   = 324
BSTAR          = .30627883E-3
MEAN_MOTION_DOT = .6021E-4
MEAN_MOTION_DDOT = 0

CCSDS_OMM_VERS = 2.0
CREATION_DATE  = 
ORIGINATOR     = 

OBJECT_NAME    = FLOCK 4H-24
OBJECT_ID      = 2025-276BP
CENTER_NAME    = EARTH
REF_FRAME      = TEME
TIME_SYSTEM    = UTC
MEAN_ELEMENT_THEORY = SGP/SGP4

EPOCH          = 2025-12-20T10:56:01.139136
MEAN_MOTION    = 15.17304964
ECCENTRICITY   = .0002672
INCLINATION    = 97.4448
RA_OF_ASC_NODE = 66.0946
ARG_OF_PERICENTER = 276.2785
MEAN_ANOMALY   = 83.8145

EPHEMERIS_TYPE = 0
CLASSIFICATION_TYPE = U
NORAD_CAT_ID   = 66727
ELEMENT_SET_NO = 999
REV_AT_EPOCH   = 329
BSTAR          = .36018E-3
MEAN_MOTION_DOT = .7115E-4
MEAN_MOTION_DDOT = 0

CCSDS_OMM_VERS = 2.0
CREATION_DATE  = 
ORIGINATOR     = 

OBJECT_NAME    = FLOCK 4H-25
OBJECT_ID      = 2025-276BQ
CENTER_NAME    = EARTH
REF_FRAME      = TEME
TIME_SYSTEM    = UTC
MEAN_ELEMENT_THEORY = SGP/SGP4

EPOCH          = 2025-12-20T10:37:45.810048
MEAN_MOTION    = 15.18183936
ECCENTRICITY   = .0001586
INCLINATION    = 97.4403
RA_OF_ASC_NODE = 66.0962
ARG_OF_PERICENTER = 116.1146
MEAN_ANOMALY   = 244.0251

EPHEMERIS_TYPE = 0
CLASSIFICATION_TYPE = U
NORAD_CAT_ID   = 66728
ELEMENT_SET_NO = 999
REV_AT_EPOCH   = 257
BSTAR          = .3274E-3
MEAN_MOTION_DOT = .6626E-4
MEAN_MOTION_DDOT = 0

CCSDS_OMM_VERS = 2.0
CREATION_DATE  = 
ORIGINATOR     = 

OBJECT_NAME    = FLOCK 4H-26
OBJECT_ID      = 2025-276BR
CENTER_NAME    = EARTH
REF_FRAME      = TEME
TIME_SYSTEM    = UTC
MEAN_ELEMENT_THEORY = SGP/SGP4

EPOCH          = 2025-12-20T11:00:10.416960
MEAN_MOTION    = 15.17128199
ECCENTRICITY   = .0003552
INCLINATION    = 97.4406
RA_OF_ASC_NODE = 66.0747
ARG_OF_PERICENTER = 274.9943
MEAN_ANOMALY   = 85.0884

EPHEMERIS_TYPE = 0
CLASSIFICATION_TYPE = U
NORAD_CAT_ID   = 66729
ELEMENT_SET_NO = 999
REV_AT_EPOCH   = 329
BSTAR          = .40396E-3
MEAN_MOTION_DOT = .7949E-4
MEAN_MOTION_DDOT = 0

CCSDS_OMM_VERS = 2.0
CREATION_DATE  = 
ORIGINATOR     = 

OBJECT_NAME    = FLOCK 4H-27
OBJECT_ID      = 2025-276BS
CENTER_NAME    = EARTH
REF_FRAME      = TEME
TIME_SYSTEM    = UTC
MEAN_ELEMENT_THEORY = SGP/SGP4

EPOCH          = 2025-12-20T05:55:46.365888
MEAN_MOTION    = 15.18053013
ECCENTRICITY   = .0001182
INCLINATION    = 97.4383
RA_OF_ASC_NODE = 65.8924
ARG_OF_PERICENTER = 122.4757
MEAN_ANOMALY   = 237.6591

EPHEMERIS_TYPE = 0
CLASSIFICATION_TYPE = U
NORAD_CAT_ID   = 66730
ELEMENT_SET_NO = 999
REV_AT_EPOCH   = 326
BSTAR          = .3704E-3
MEAN_MOTION_DOT = .7478E-4
MEAN_MOTION_DDOT = 0

CCSDS_OMM_VERS = 2.0
CREATION_DATE  = 
ORIGINATOR     = 

OBJECT_NAME    = FLOCK 4H-28
OBJECT_ID      = 2025-276BT
CENTER_NAME    = EARTH
REF_FRAME      = TEME
TIME_SYSTEM    = UTC
MEAN_ELEMENT_THEORY = SGP/SGP4

EPOCH          = 2025-12-20T10:59:41.510112
MEAN_MOTION    = 15.17112694
ECCENTRICITY   = .0003158
INCLINATION    = 97.4392
RA_OF_ASC_NODE = 66.0718
ARG_OF_PERICENTER = 274.4256
MEAN_ANOMALY   = 85.6616

EPHEMERIS_TYPE = 0
CLASSIFICATION_TYPE = U
NORAD_CAT_ID   = 66731
ELEMENT_SET_NO = 999
REV_AT_EPOCH   = 329
BSTAR          = .30951E-3
MEAN_MOTION_DOT = .607E-4
MEAN_MOTION_DDOT = 0

CCSDS_OMM_VERS = 2.0
CREATION_DATE  = 
ORIGINATOR     = 

OBJECT_NAME    = FLOCK 4H-29
OBJECT_ID      = 2025-276BU
CENTER_NAME    = EARTH
REF_FRAME      = TEME
TIME_SYSTEM    = UTC
MEAN_ELEMENT_THEORY = SGP/SGP4

EPOCH          = 2025-12-20T04:36:53.458560
MEAN_MOTION    = 15.17274230
ECCENTRICITY   = .00025031
INCLINATION    = 97.4513
RA_OF_ASC_NODE = 65.8133
ARG_OF_PERICENTER = 244.0915
MEAN_ANOMALY   = 116.0061

EPHEMERIS_TYPE = 0
CLASSIFICATION_TYPE = U
NORAD_CAT_ID   = 66732
ELEMENT_SET_NO = 999
REV_AT_EPOCH   = 325
BSTAR          = .63407941E-3
MEAN_MOTION_DOT = .12574E-3
MEAN_MOTION_DDOT = 0

CCSDS_OMM_VERS = 2.0
CREATION_DATE  = 
ORIGINATOR     = 

OBJECT_NAME    = FLOCK 4H-30
OBJECT_ID      = 2025-276BV
CENTER_NAME    = EARTH
REF_FRAME      = TEME
TIME_SYSTEM    = UTC
MEAN_ELEMENT_THEORY = SGP/SGP4

EPOCH          = 2025-12-20T03:03:23.013216
MEAN_MOTION    = 15.17773354
ECCENTRICITY   = .00059512
INCLINATION    = 97.4445
RA_OF_ASC_NODE = 65.7654
ARG_OF_PERICENTER = 238.2181
MEAN_ANOMALY   = 121.8473

EPHEMERIS_TYPE = 0
CLASSIFICATION_TYPE = U
NORAD_CAT_ID   = 66733
ELEMENT_SET_NO = 999
REV_AT_EPOCH   = 324
BSTAR          = .19368183E-1
MEAN_MOTION_DOT = .413861E-2
MEAN_MOTION_DDOT = 0

